NORAD_CAT_ID,OBJECT_NAME,OBJECT_TYPE,EPOCH,MEAN_MOTION,ECCENTRICITY,INCLINATION,RA_OF_ASC_NODE,ARG_OF_PERICENTER,MEAN_ANOMALY,BSTAR,MEAN_MOTION_DOT,MEAN_MOTION_DDOT,TLE_LINE0,TLE_LINE1,TLE_LINE2,SEMIMAJOR_AXIS,PERIOD,APOGEE,PERIGEE,DECAYED
51152.0,STARLINK-3364,PAYLOAD,2023-09-25 15:25:50,15.08857266,0.0001405,53.2181,11.6393,91.6339,268.4814,0.00055818,8.611e-05,0.0,0 STARLINK-3364,1 51152U 22005BA  23268.64294682  .00008611  00000-0  55818-3 0  9991,2 51152  53.2181  11.6393 0001405  91.6339 268.4814 15.08857266 94431,6917.828,95.436,540.665,538.721,0.0
51152.0,STARLINK-3364,PAYLOAD,2023-09-26 10:30:28,15.08835955,0.0001661,53.2181,8.0699,106.975,253.1424,0.00017332,2.471e-05,0.0,0 STARLINK-3364,1 51152U 22005BA  23269.43783456  .00002471  00000-0  17332-3 0  9998,2 51152  53.2181   8.0699 0001661 106.9750 253.1424 15.08835955 94553,6917.893,95.438,540.907,538.609,0.0
51152.0,STARLINK-3364,PAYLOAD,2023-09-26 13:41:15,15.08838099,0.0001393,53.2177,7.4735,81.1712,278.9438,0.00031514,4.731e-05,0.0,0 STARLINK-3364,1 51152U 22005BA  23269.57031710  .00004731  00000-0  31514-3 0  9991,2 51152  53.2177   7.4735 0001393  81.1712 278.9438 15.08838099 93467,6917.886,95.438,540.715,538.788,0.0
51152.0,STARLINK-3364,PAYLOAD,2023-09-27 13:32:02,15.08846804,0.0001473,53.2181,3.0193,92.005,268.1111,0.00046569,7.133e-05,0.0,0 STARLINK-3364,1 51152U 22005BA  23270.56391748  .00007133  00000-0  46569-3 0  9997,2 51152  53.2181   3.0193 0001473  92.0050 268.1111 15.08846804 93616,6917.86,95.437,540.744,538.706,0.0
51152.0,STARLINK-3364,PAYLOAD,2023-09-28 11:47:26,15.08836726,0.0001461,53.2179,358.8562,89.3353,270.7806,7.4983e-05,9.05e-06,0.0,0 STARLINK-3364,1 51152U 22005BA  23271.49128256  .00000905  00000-0  74983-4 0  9994,2 51152  53.2179 358.8562 0001461  89.3353 270.7806 15.08836726 94866,6917.89,95.438,540.766,538.745,0.0
51152.0,STARLINK-3364,PAYLOAD,2023-09-28 13:22:49,15.08839264,0.0001487,53.2183,358.5581,79.6777,280.4383,0.00015397,2.163e-05,0.0,0 STARLINK-3364,1 51152U 22005BA  23271.55752262  .00002163  00000-0  15397-3 0  9992,2 51152  53.2183 358.5581 0001487  79.6777 280.4383 15.08839264 93765,6917.883,95.438,540.776,538.719,0.0
51152.0,STARLINK-3364,PAYLOAD,2023-09-29 13:13:36,15.08848396,0.0001581,53.218,354.0973,72.3083,287.8081,0.00036821,5.578e-05,0.0,0 STARLINK-3364,1 51152U 22005BA  23272.55112256  .00005578  00000-0  36821-3 0  9994,2 51152  53.2180 354.0973 0001581  72.3083 287.8081 15.08848396 93912,6917.855,95.437,540.813,538.626,0.0
51152.0,STARLINK-3364,PAYLOAD,2023-09-29 22:45:55,15.08853911,0.0001522,53.2178,352.3133,79.9501,280.1663,0.00045042,6.89e-05,0.0,0 STARLINK-3364,1 51152U 22005BA  23272.94855914  .00006890  00000-0  45042-3 0  9995,2 51152  53.2178 352.3133 0001522  79.9501 280.1663 15.08853911 93978,6917.838,95.437,540.756,538.65,0.0
51152.0,STARLINK-3364,PAYLOAD,2023-09-30 22:36:36,15.08988525,0.00014,53.2194,347.8538,92.8085,267.3067,0.0028228,0.00045108,0.0,0 STARLINK-3364,1 51152U 22005BA  23273.94209131  .00045108  00000-0  28228-2 0  9991,2 51152  53.2194 347.8538 0001400  92.8085 267.3067 15.08988525 95236,6917.426,95.428,540.26,538.323,0.0
51152.0,STARLINK-3364,PAYLOAD,2023-10-01 11:19:20,15.09475276,0.0001764,53.2171,345.4705,84.1379,275.9814,0.012091,0.00201157,0.0,0 STARLINK-3364,1 51152U 22005BA  23274.47176766  .00201157  00000-0  12091-1 0  9995,2 51152  53.2171 345.4705 0001764  84.1379 275.9814 15.09475276 95313,6915.939,95.397,539.024,536.584,0.0
51152.0,STARLINK-3364,PAYLOAD,2023-10-01 22:26:33,15.09793817,0.0001109,53.2173,343.3887,92.8814,267.2306,0.011625,0.00194921,0.0,0 STARLINK-3364,1 51152U 22005BA  23274.93510832  .00194921  00000-0  11625-1 0  9994,2 51152  53.2173 343.3887 0001109  92.8814 267.2306 15.09793817 95387,6914.966,95.377,537.598,536.065,0.0
51152.0,STARLINK-3364,PAYLOAD,2023-10-02 14:00:01,15.10454429,0.0001286,53.217,340.4722,76.1534,210.7864,0.0003839,6.1e-05,0.0,0 STARLINK-3364,1 51152U 22005BA  23275.58334491  .00006100  00000-0  38390-3 0  9992,2 51152  53.2170 340.4722 0001286  76.1534 210.7864 15.10454429 95488,6912.95,95.336,535.704,533.926,0.0
51152.0,STARLINK-3364,PAYLOAD,2023-10-02 22:00:00,15.10460249,0.0001184,53.2171,338.9706,85.089,215.3886,0.0011059,0.00018157,0.0,0 STARLINK-3364,1 51152U 22005BA  23275.91667824  .00018157  00000-0  11059-2 0  9995,2 51152  53.2171 338.9706 0001184  85.0890 215.3886 15.10460249  5757,6912.932,95.335,535.616,533.979,0.0
51152.0,STARLINK-3364,PAYLOAD,2023-10-03 14:00:01,15.10453655,0.0001283,53.2171,335.9716,85.2417,242.3628,0.0011767,0.00019338,0.0,0 STARLINK-3364,1 51152U 22005BA  23276.58334491  .00019338  00000-0  11767-2 0  9998,2 51152  53.2171 335.9716 0001283  85.2417 242.3628 15.10453655  5850,6912.952,95.336,535.704,533.931,0.0
51152.0,STARLINK-3364,PAYLOAD,2023-10-03 22:00:00,15.1046082,0.0001224,53.2172,334.4698,95.7813,245.3621,0.0013578,0.00022373,0.0,0 STARLINK-3364,1 51152U 22005BA  23276.91667824  .00022373  00000-0  13578-2 0  9999,2 51152  53.2172 334.4698 0001224  95.7813 245.3621 15.10460820 95683,6912.931,95.335,535.642,533.949,0.0
51152.0,STARLINK-3364,PAYLOAD,2023-10-04 14:00:01,15.10469044,0.0001305,53.2171,331.4708,75.2447,293.0662,-0.0015093,-0.00025325,0.0,0 STARLINK-3364,1 51152U 22005BA  23277.58334491 -.00025325  00000-0 -15093-2 0  9990,2 51152  53.2171 331.4708 0001305  75.2447 293.0662 15.10469044  5859,6912.906,95.335,535.673,533.868,0.0
51152.0,STARLINK-3364,PAYLOAD,2023-10-04 22:00:01,15.10440865,0.000127,53.217,329.9689,78.8285,303.0926,0.0022623,0.00037531,0.0,0 STARLINK-3364,1 51152U 22005BA  23277.91668981  .00037531  00000-0  22623-2 0  9998,2 51152  53.2170 329.9689 0001270  78.8285 303.0926 15.10440865 95830,6912.992,95.336,535.734,533.979,0.0
51152.0,STARLINK-3364,PAYLOAD,2023-10-05 14:00:01,15.10438678,0.0001394,53.2168,326.9703,78.5912,330.3967,0.0015832,0.00026134,0.0,0 STARLINK-3364,1 51152U 22005BA  23278.58334491  .00026134  00000-0  15832-2 0  9999,2 51152  53.2168 326.9703 0001394  78.5912 330.3967 15.10438678  5784,6912.998,95.337,535.827,533.9,0.0
51152.0,STARLINK-3364,PAYLOAD,2023-10-05 22:00:00,15.10441871,0.0001358,53.2167,325.4685,90.4944,332.0253,0.002838,0.00047223,0.0,0 STARLINK-3364,1 51152U 22005BA  23278.91667824  .00047223  00000-0  28380-2 0  9999,2 51152  53.2167 325.4685 0001358  90.4944 332.0253 15.10441871 95992,6912.988,95.336,535.792,533.915,0.0
51152.0,STARLINK-3364,PAYLOAD,2023-10-06 12:01:02,15.10488197,0.0001539,53.2162,322.841,81.0371,279.0796,0.00061841,0.0001002,0.0,0 STARLINK-3364,1 51152U 22005BA  23279.50072111  .00010020  00000-0  61841-3 0  9999,2 51152  53.2162 322.8410 0001539  81.0371 279.0796 15.10488197 94965,6912.847,95.333,535.776,533.648,0.0
51152.0,STARLINK-3364,PAYLOAD,2023-10-06 19:57:27,15.10480377,0.0001285,53.2161,321.3508,93.9591,266.1548,0.00030113,4.724e-05,0.0,0 STARLINK-3364,1 51152U 22005BA  23279.83156311  .00004724  00000-0  30113-3 0  9992,2 51152  53.2161 321.3508 0001285  93.9591 266.1548 15.10480377 95011,6912.871,95.334,535.624,533.848,0.0
51152.0,STARLINK-3364,PAYLOAD,2023-10-07 02:18:34,15.10481668,0.0001674,53.216,320.1599,89.8841,270.2344,0.00035186,5.57e-05,0.0,0 STARLINK-3364,1 51152U 22005BA  23280.09623732  .00005570  00000-0  35186-3 0  9993,2 51152  53.2160 320.1599 0001674  89.8841 270.2344 15.10481668 96162,6912.867,95.334,535.889,533.575,0.0
51152.0,STARLINK-3364,PAYLOAD,2023-10-07 10:14:59,15.10488308,0.0001648,53.2164,318.6715,92.2176,267.9005,0.00050404,8.111e-05,0.0,0 STARLINK-3364,1 51152U 22005BA  23280.42707627  .00008111  00000-0  50404-3 0  9990,2 51152  53.2164 318.6715 0001648  92.2176 267.9005 15.10488308 95106,6912.847,95.333,535.851,533.573,0.0
51152.0,STARLINK-3364,PAYLOAD,2023-10-07 19:46:41,15.10478691,0.0001648,53.2163,316.8837,85.8302,274.2879,0.00032365,5.1e-05,0.0,0 STARLINK-3364,1 51152U 22005BA  23280.82408755  .00005100  00000-0  32365-3 0  9995,2 51152  53.2163 316.8837 0001648  85.8302 274.2879 15.10478691 95169,6912.876,95.334,535.88,533.602,0.0
51152.0,STARLINK-3364,PAYLOAD,2023-10-08 02:07:48,15.10479059,0.0001847,53.2152,315.6948,82.6588,277.4614,0.00033804,5.34e-05,0.0,0 STARLINK-3364,1 51152U 22005BA  23281.08876139  .00005340  00000-0  33804-3 0  9994,2 51152  53.2152 315.6948 0001847  82.6588 277.4614 15.10479059 96318,6912.875,95.334,536.017,533.463,0.0
51152.0,STARLINK-3364,PAYLOAD,2023-10-08 10:04:13,15.10483185,0.0001555,53.2158,314.2048,86.7585,273.3585,0.00041174,6.57e-05,0.0,0 STARLINK-3364,1 51152U 22005BA  23281.41960130  .00006570  00000-0  41174-3 0  9991,2 51152  53.2158 314.2048 0001555  86.7585 273.3585 15.10483185 95257,6912.862,95.334,535.802,533.652,0.0
51152.0,STARLINK-3364,PAYLOAD,2023-10-08 19:35:55,15.10482722,0.000166,53.2161,312.4179,91.1035,269.0148,0.0003752,5.96e-05,0.0,0 STARLINK-3364,1 51152U 22005BA  23281.81661066  .00005960  00000-0  37520-3 0  9993,2 51152  53.2161 312.4179 0001660  91.1035 269.0148 15.10482722 95313,6912.864,95.334,535.876,533.581,0.0
51152.0,STARLINK-3364,PAYLOAD,2023-10-09 01:57:02,15.10482338,0.000176,53.2164,311.227,89.2276,270.8919,0.00033911,5.358e-05,0.0,0 STARLINK-3364,1 51152U 22005BA  23282.08128373  .00005358  00000-0  33911-3 0  9993,2 51152  53.2164 311.2270 0001760  89.2276 270.8919 15.10482338 96467,6912.865,95.334,535.947,533.513,0.0
51152.0,STARLINK-3364,PAYLOAD,2023-10-09 08:18:10,15.10487853,0.0001656,53.2163,310.0356,92.59,267.5282,0.00037266,5.918e-05,0.0,0 STARLINK-3364,1 51152U 22005BA  23282.34595417  .00005918  00000-0  37266-3 0  9998,2 51152  53.2163 310.0356 0001656  92.5900 267.5282 15.10487853 95397,6912.848,95.333,535.858,533.568,0.0
51152.0,STARLINK-3364,PAYLOAD,2023-10-10 01:46:16,15.10482358,0.0001609,53.2149,306.7601,89.5868,270.5309,0.0001999,3.037e-05,0.0,0 STARLINK-3364,1 51152U 22005BA  23283.07380418  .00003037  00000-0  19990-3 0  9996,2 51152  53.2149 306.7601 0001609  89.5868 270.5309 15.10482358 96618,6912.865,95.334,535.842,533.618,0.0
